{
  "type": "FeatureCollection",
  "features": [
    {
      "type": "Feature",
      "properties": {
        "norad_id": 44873,
        "name": "CSG-1",
        "group": "resource",
        "lat": -28.02639867304709,
        "lon": -17.672576338533062,
        "alt_km": 628.9277771879661,
        "timestamp": "2025-12-11T05:00:25.968802+00:00",
        "meta_object_name": "CSG-1",
        "meta_object_id": "2019-092A",
        "meta_epoch": "2025-12-10T23:12:36.307296",
        "meta_mean_motion": 14.82160254,
        "meta_eccentricity": 0.00014449,
        "meta_inclination": 97.881,
        "meta_ra_of_asc_node": 166.318,
        "meta_arg_of_pericenter": 84.8129,
        "meta_mean_anomaly": 275.3249,
        "meta_ephemeris_type": 0,
        "meta_classification_type": "U",
        "meta_norad_cat_id": 44873,
        "meta_element_set_no": 999,
        "meta_rev_at_epoch": 32359,
        "meta_bstar": 0.00013115783,
        "meta_mean_motion_dot": 9.92e-06,
        "meta_mean_motion_ddot": 0,
        "tle_line1": "1 44873U 19092A   25344.96708689  .00000992  00000+0  13116-3 0  9992",
        "tle_line2": "2 44873  97.8810 166.3180 0001444  84.8129 275.3249 14.82160254323598"
      },
      "geometry": {
        "type": "Point",
        "coordinates": [
          -17.672576338533062,
          -28.02639867304709
        ]
      }
    },
    {
      "type": "Feature",
      "properties": {
        "norad_id": 46277,
        "name": "NEMO-HD",
        "group": "resource",
        "lat": 46.47539019275895,
        "lon": 36.65385594807842,
        "alt_km": 439.9632865255908,
        "timestamp": "2025-12-11T05:00:25.968812+00:00",
        "meta_object_name": "NEMO-HD",
        "meta_object_id": "2020-061F",
        "meta_epoch": "2025-12-10T22:34:02.421984",
        "meta_mean_motion": 15.40264693,
        "meta_eccentricity": 0.00020017,
        "meta_inclination": 97.2211,
        "meta_ra_of_asc_node": 44.0607,
        "meta_arg_of_pericenter": 58.331,
        "meta_mean_anomaly": 301.8132,
        "meta_ephemeris_type": 0,
        "meta_classification_type": "U",
        "meta_norad_cat_id": 46277,
        "meta_element_set_no": 999,
        "meta_rev_at_epoch": 29296,
        "meta_bstar": 0.00038816901,
        "meta_mean_motion_dot": 0.00015554,
        "meta_mean_motion_ddot": 0,
        "tle_line1": "1 46277U 20061F   25344.94030581  .00015554  00000+0  38817-3 0  9992",
        "tle_line2": "2 46277  97.2211  44.0607 0002001  58.3310 301.8132 15.40264693292960"
      },
      "geometry": {
        "type": "Point",
        "coordinates": [
          36.65385594807842,
          46.47539019275895
        ]
      }
    },
    {
      "type": "Feature",
      "properties": {
        "norad_id": 46984,
        "name": "SENTINEL-6A",
        "group": "resource",
        "lat": -51.83893414256147,
        "lon": 19.950182622624343,
        "alt_km": 1338.5764200357899,
        "timestamp": "2025-12-11T05:00:25.968822+00:00",
        "meta_object_name": "SENTINEL-6A",
        "meta_object_id": "2020-086A",
        "meta_epoch": "2025-12-10T18:23:32.214912",
        "meta_mean_motion": 12.80930554,
        "meta_eccentricity": 0.0007731,
        "meta_inclination": 66.039,
        "meta_ra_of_asc_node": 166.4071,
        "meta_arg_of_pericenter": 269.1652,
        "meta_mean_anomaly": 90.8477,
        "meta_ephemeris_type": 0,
        "meta_classification_type": "U",
        "meta_norad_cat_id": 46984,
        "meta_element_set_no": 999,
        "meta_rev_at_epoch": 23619,
        "meta_bstar": 9.1963369e-05,
        "meta_mean_motion_dot": -4e-07,
        "meta_mean_motion_ddot": 0,
        "tle_line1": "1 46984U 20086A   25344.76634508 -.00000040  00000+0  91963-4 0  9990",
        "tle_line2": "2 46984  66.0390 166.4071 0007731 269.1652  90.8477 12.80930554236194"
      },
      "geometry": {
        "type": "Point",
        "coordinates": [
          19.950182622624343,
          -51.83893414256147
        ]
      }
    },
    {
      "type": "Feature",
      "properties": {
        "norad_id": 48079,
        "name": "GAOFEN-12 02",
        "group": "resource",
        "lat": 62.132218969677645,
        "lon": 174.6175519217892,
        "alt_km": 618.7634920017272,
        "timestamp": "2025-12-11T05:00:25.968832+00:00",
        "meta_object_name": "GAOFEN-12 02",
        "meta_object_id": "2021-026A",
        "meta_epoch": "2025-12-10T23:36:59.176800",
        "meta_mean_motion": 14.80671669,
        "meta_eccentricity": 0.00035039,
        "meta_inclination": 97.9851,
        "meta_ra_of_asc_node": 338.9989,
        "meta_arg_of_pericenter": 104.6503,
        "meta_mean_anomaly": 255.5098,
        "meta_ephemeris_type": 0,
        "meta_classification_type": "U",
        "meta_norad_cat_id": 48079,
        "meta_element_set_no": 999,
        "meta_rev_at_epoch": 25391,
        "meta_bstar": 0.00011560283,
        "meta_mean_motion_dot": 8.36e-06,
        "meta_mean_motion_ddot": 0,
        "tle_line1": "1 48079U 21026A   25344.98401825  .00000836  00000+0  11560-3 0  9996",
        "tle_line2": "2 48079  97.9851 338.9989 0003503 104.6503 255.5098 14.80671669253910"
      },
      "geometry": {
        "type": "Point",
        "coordinates": [
          174.6175519217892,
          62.132218969677645
        ]
      }
    },
    {
      "type": "Feature",
      "properties": {
        "norad_id": 48268,
        "name": "PLEIADES NEO 3",
        "group": "resource",
        "lat": 1.6254182001574904,
        "lon": -122.10322451180376,
        "alt_km": 626.818496377452,
        "timestamp": "2025-12-11T05:00:25.968842+00:00",
        "meta_object_name": "PLEIADES NEO 3",
        "meta_object_id": "2021-034A",
        "meta_epoch": "2025-12-10T23:20:35.230272",
        "meta_mean_motion": 14.81676055,
        "meta_eccentricity": 0.00013729,
        "meta_inclination": 97.8943,
        "meta_ra_of_asc_node": 57.4386,
        "meta_arg_of_pericenter": 90.5618,
        "meta_mean_anomaly": 269.5752,
        "meta_ephemeris_type": 0,
        "meta_classification_type": "U",
        "meta_norad_cat_id": 48268,
        "meta_element_set_no": 999,
        "meta_rev_at_epoch": 24978,
        "meta_bstar": 0.00026537611,
        "meta_mean_motion_dot": 2.037e-05,
        "meta_mean_motion_ddot": 0,
        "tle_line1": "1 48268U 21034A   25344.97262998  .00002037  00000+0  26538-3 0  9996",
        "tle_line2": "2 48268  97.8943  57.4386 0001372  90.5618 269.5752 14.81676055249784"
      },
      "geometry": {
        "type": "Point",
        "coordinates": [
          -122.10322451180376,
          1.6254182001574904
        ]
      }
    },
    {
      "type": "Feature",
      "properties": {
        "norad_id": 49070,
        "name": "PLEIADES NEO 4",
        "group": "resource",
        "lat": -1.777599897657622,
        "lon": 57.91406958966416,
        "alt_km": 627.1989424995727,
        "timestamp": "2025-12-11T05:00:25.968852+00:00",
        "meta_object_name": "PLEIADES NEO 4",
        "meta_object_id": "2021-073E",
        "meta_epoch": "2025-12-09T14:07:00.443712",
        "meta_mean_motion": 14.81679595,
        "meta_eccentricity": 0.0001363,
        "meta_inclination": 97.8947,
        "meta_ra_of_asc_node": 56.0703,
        "meta_arg_of_pericenter": 89.0853,
        "meta_mean_anomaly": 271.0516,
        "meta_ephemeris_type": 0,
        "meta_classification_type": "U",
        "meta_norad_cat_id": 49070,
        "meta_element_set_no": 999,
        "meta_rev_at_epoch": 23329,
        "meta_bstar": 7.8728e-05,
        "meta_mean_motion_dot": 5.68e-06,
        "meta_mean_motion_ddot": 0,
        "tle_line1": "1 49070U 21073E   25343.58819958  .00000568  00000+0  78728-4 0  9997",
        "tle_line2": "2 49070  97.8947  56.0703 0001363  89.0853 271.0516 14.81679595233299"
      },
      "geometry": {
        "type": "Point",
        "coordinates": [
          57.91406958966416,
          -1.777599897657622
        ]
      }
    },
    {
      "type": "Feature",
      "properties": {
        "norad_id": 49260,
        "name": "LANDSAT 9",
        "group": "resource",
        "lat": 29.311664022925005,
        "lon": -122.00876436570312,
        "alt_km": 700.5920700362722,
        "timestamp": "2025-12-11T05:00:25.968862+00:00",
        "meta_object_name": "LANDSAT 9",
        "meta_object_id": "2021-088A",
        "meta_epoch": "2025-12-10T21:43:40.110240",
        "meta_mean_motion": 14.57127299,
        "meta_eccentricity": 0.00011245,
        "meta_inclination": 98.2097,
        "meta_ra_of_asc_node": 53.0431,
        "meta_arg_of_pericenter": 95.249,
        "meta_mean_anomaly": 264.8837,
        "meta_ephemeris_type": 0,
        "meta_classification_type": "U",
        "meta_norad_cat_id": 49260,
        "meta_element_set_no": 999,
        "meta_rev_at_epoch": 22358,
        "meta_bstar": 0.00016388985,
        "meta_mean_motion_dot": 6.93e-06,
        "meta_mean_motion_ddot": 0,
        "tle_line1": "1 49260U 21088A   25344.90532535  .00000693  00000+0  16389-3 0  9997",
        "tle_line2": "2 49260  98.2097  53.0431 0001124  95.2490 264.8837 14.57127299223586"
      },
      "geometry": {
        "type": "Point",
        "coordinates": [
          -122.00876436570312,
          29.311664022925005
        ]
      }
    }
  ]
}